[{"OBJECT_NAME":"STARLINK-3332","OBJECT_ID":"2022-001Y","EPOCH":"2026-03-09T17:55:31.221696","MEAN_MOTION":15.08846097,"ECCENTRICITY":0.00011514,"INCLINATION":53.2155,"RA_OF_ASC_NODE":168.8647,"ARG_OF_PERICENTER":80.4473,"MEAN_ANOMALY":279.6649,"EPHEMERIS_TYPE":0,"CLASSIFICATION_TYPE":"U","NORAD_CAT_ID":50825,"ELEMENT_SET_NO":999,"REV_AT_EPOCH":23041,"BSTAR":-2.9360933e-5,"MEAN_MOTION_DOT":-7.55e-6,"MEAN_MOTION_DDOT":0},{"OBJECT_NAME":"PEGASUS DEB","OBJECT_ID":"1994-029ED","EPOCH":"2026-03-09T22:32:35.369664","MEAN_MOTION":15.15581903,"ECCENTRICITY":0.00435925,"INCLINATION":81.9086,"RA_OF_ASC_NODE":82.9658,"ARG_OF_PERICENTER":180.8011,"MEAN_ANOMALY":179.3158,"EPHEMERIS_TYPE":0,"CLASSIFICATION_TYPE":"U","NORAD_CAT_ID":24082,"ELEMENT_SET_NO":999,"REV_AT_EPOCH":60530,"BSTAR":0.00058600752,"MEAN_MOTION_DOT":0.00011426,"MEAN_MOTION_DDOT":0}]
